QIANFAN-33              
1 61566U 24185Q   26008.48609567  .00000417  00000+0  29168-3 0  9995
2 61566  88.9781  75.8303 0005542 229.0455 131.0243 13.96578529 72891
QIANFAN-34              
1 61567U 24185R   26008.48452876  .00000418  00000+0  26352-3 0  9998
2 61567  88.9759  75.3587 0004199 233.9284 126.1508 14.02334251 73101
QIANFAN-35              
1 61568U 24185S   26008.46539692  .00000883  00000+0  35006-3 0  9991
2 61568  88.9782  73.7463 0006540 178.1958 181.9261 14.28021841 73991
QIANFAN-36              
1 61569U 24185T   26008.46176900  .00000200  00000+0  27060-3 0  9995
2 61569  88.9768  78.2655 0004796 341.4859  18.6119 13.55597850 71549
QIANFAN-37              
1 62238U 24232B   26008.50753478  .00000039  00000+0  42074-4 0  9991
2 62238  88.9998  38.6253 0002252  78.1650 281.9753 13.50982160102787
QIANFAN-38              
1 62239U 24232C   26008.45817840  .00000032  00000+0  31107-4 0  9998
2 62239  89.0005  38.5479 0016387 115.4655 244.8193 13.50979979102838
QIANFAN-39              
1 62240U 24232D   26008.45076868  .00000156  00000+0  59772-4 0  9992
2 62240  88.9998  34.2518 0015865 359.6830   0.4350 14.25410141105190
QIANFAN-40              
1 62241U 24232E   26008.49109642  .00000043  00000+0  47018-4 0  9999
2 62241  89.0032  38.1364 0015306 122.2643 237.9993 13.50980087103208
